COSMOS 1743             
1 16719U 86034A   25323.36869042  .00027810  00000+0  48356-3 0  9994
2 16719  82.5366 188.8346 0006285 354.3587   5.7592 15.50630325163110
SL-14 R/B               
1 16792U 86046B   25323.60982619  .00000544  00000+0  60051-4 0  9993
2 16792  82.4827 184.1570 0021871 229.5666 130.3643 14.85452006110062
SL-14 R/B               
1 16882U 86055B   25323.73623587  .00000664  00000+0  74028-4 0  9995
2 16882  82.5219 229.9846 0018502 340.7795  41.4060 14.85497036103045
AJISAI (EGS)            
1 16908U 86061A   25323.79840958 -.00000115  00000+0 -12024-3 0  9990
2 16908  50.0098  71.2585 0011215   8.2489 165.0052 12.44514118454314
COSMOS 1812             
1 17295U 87003A   25323.44524110  .00078499  00000+0  63077-3 0  9990
2 17295  82.4868 317.1367 0005898 123.5206 236.6620 15.70677713126995
SL-14 R/B               
1 17567U 87024B   25323.61582929  .00000566  00000+0  61899-4 0  9997
2 17567  82.5294 196.1750 0016723 265.3255  94.6052 14.85992498 71782
COSMOS 1833             
1 17589U 87027A   25323.63983366 -.00000119  00000+0 -37972-4 0  9997
2 17589  70.9135 197.3372 0021548   4.2215 355.9084 14.13018512994768
SL-16 R/B               
1 17590U 87027B   25323.79166757 -.00000112  00000+0 -31647-4 0  9999
2 17590  71.0000 148.0737 0007259 283.3640  76.6674 14.17146977999810
SL-14 R/B               
1 17912U 87038B   25323.68902199  .00000619  00000+0  69200-4 0  9991
2 17912  82.5036  40.4082 0019755 164.0468 196.1375 14.85229920 62901
COSMOS 1844             
1 17973U 87041A   25323.86216856  .00000122  00000+0  88316-4 0  9998
2 17973  70.8994 265.8214 0031243 192.1388 167.8984 14.14526785988055
SL-14 R/B               
1 18153U 87055B   25323.61761172  .00000638  00000+0  70865-4 0  9995
2 18153  82.4984  92.7774 0021188  21.3900 338.8196 14.85485851 53595
COSMOS 1867             
1 18187U 87060A   25323.54823720 -.00000015  00000+0  31967-4 0  9998
2 18187  65.0103 255.1462 0013676 268.8185  91.1333 14.31480940  4174
