CCSDS_OMM_VERS = 2.0
CREATION_DATE  = 
ORIGINATOR     = 

OBJECT_NAME    = COSMOS 1743
OBJECT_ID      = 1986-034A
CENTER_NAME    = EARTH
REF_FRAME      = TEME
TIME_SYSTEM    = UTC
MEAN_ELEMENT_THEORY = SGP/SGP4

EPOCH          = 2025-11-19T08:50:54.852288
MEAN_MOTION    = 15.50630325
ECCENTRICITY   = .00062852
INCLINATION    = 82.5366
RA_OF_ASC_NODE = 188.8346
ARG_OF_PERICENTER = 354.3587
MEAN_ANOMALY   = 5.7592

EPHEMERIS_TYPE = 0
CLASSIFICATION_TYPE = U
NORAD_CAT_ID   = 16719
ELEMENT_SET_NO = 999
REV_AT_EPOCH   = 16311
BSTAR          = .48356242E-3
MEAN_MOTION_DOT = .2781E-3
MEAN_MOTION_DDOT = 0

CCSDS_OMM_VERS = 2.0
CREATION_DATE  = 
ORIGINATOR     = 

OBJECT_NAME    = SL-14 R/B
OBJECT_ID      = 1986-046B
CENTER_NAME    = EARTH
REF_FRAME      = TEME
TIME_SYSTEM    = UTC
MEAN_ELEMENT_THEORY = SGP/SGP4

EPOCH          = 2025-11-19T14:38:08.982816
MEAN_MOTION    = 14.85452006
ECCENTRICITY   = .0021871
INCLINATION    = 82.4827
RA_OF_ASC_NODE = 184.1570
ARG_OF_PERICENTER = 229.5666
MEAN_ANOMALY   = 130.3643

EPHEMERIS_TYPE = 0
CLASSIFICATION_TYPE = U
NORAD_CAT_ID   = 16792
ELEMENT_SET_NO = 999
REV_AT_EPOCH   = 11006
BSTAR          = .60051E-4
MEAN_MOTION_DOT = .544E-5
MEAN_MOTION_DDOT = 0

CCSDS_OMM_VERS = 2.0
CREATION_DATE  = 
ORIGINATOR     = 

OBJECT_NAME    = SL-14 R/B
OBJECT_ID      = 1986-055B
CENTER_NAME    = EARTH
REF_FRAME      = TEME
TIME_SYSTEM    = UTC
MEAN_ELEMENT_THEORY = SGP/SGP4

EPOCH          = 2025-11-19T17:40:10.779168
MEAN_MOTION    = 14.85497036
ECCENTRICITY   = .0018502
INCLINATION    = 82.5219
RA_OF_ASC_NODE = 229.9846
ARG_OF_PERICENTER = 340.7795
MEAN_ANOMALY   = 41.4060

EPHEMERIS_TYPE = 0
CLASSIFICATION_TYPE = U
NORAD_CAT_ID   = 16882
ELEMENT_SET_NO = 999
REV_AT_EPOCH   = 10304
BSTAR          = .74028E-4
MEAN_MOTION_DOT = .664E-5
MEAN_MOTION_DDOT = 0

CCSDS_OMM_VERS = 2.0
CREATION_DATE  = 
ORIGINATOR     = 

OBJECT_NAME    = AJISAI (EGS)
OBJECT_ID      = 1986-061A
CENTER_NAME    = EARTH
REF_FRAME      = TEME
TIME_SYSTEM    = UTC
MEAN_ELEMENT_THEORY = SGP/SGP4

EPOCH          = 2025-11-19T19:09:42.587712
MEAN_MOTION    = 12.44514118
ECCENTRICITY   = .0011215
INCLINATION    = 50.0098
RA_OF_ASC_NODE = 71.2585
ARG_OF_PERICENTER = 8.2489
MEAN_ANOMALY   = 165.0052

EPHEMERIS_TYPE = 0
CLASSIFICATION_TYPE = U
NORAD_CAT_ID   = 16908
ELEMENT_SET_NO = 999
REV_AT_EPOCH   = 45431
BSTAR          = -.12024E-3
MEAN_MOTION_DOT = -.115E-5
MEAN_MOTION_DDOT = 0

CCSDS_OMM_VERS = 2.0
CREATION_DATE  = 
ORIGINATOR     = 

OBJECT_NAME    = COSMOS 1812
OBJECT_ID      = 1987-003A
CENTER_NAME    = EARTH
REF_FRAME      = TEME
TIME_SYSTEM    = UTC
MEAN_ELEMENT_THEORY = SGP/SGP4

EPOCH          = 2025-11-19T10:41:08.831040
MEAN_MOTION    = 15.70677713
ECCENTRICITY   = .00058986
INCLINATION    = 82.4868
RA_OF_ASC_NODE = 317.1367
ARG_OF_PERICENTER = 123.5206
MEAN_ANOMALY   = 236.6620

EPHEMERIS_TYPE = 0
CLASSIFICATION_TYPE = U
NORAD_CAT_ID   = 17295
ELEMENT_SET_NO = 999
REV_AT_EPOCH   = 12699
BSTAR          = .63077414E-3
MEAN_MOTION_DOT = .78499E-3
MEAN_MOTION_DDOT = 0

CCSDS_OMM_VERS = 2.0
CREATION_DATE  = 
ORIGINATOR     = 

OBJECT_NAME    = SL-14 R/B
OBJECT_ID      = 1987-024B
CENTER_NAME    = EARTH
REF_FRAME      = TEME
TIME_SYSTEM    = UTC
MEAN_ELEMENT_THEORY = SGP/SGP4

EPOCH          = 2025-11-19T14:46:47.650656
MEAN_MOTION    = 14.85992498
ECCENTRICITY   = .0016723
INCLINATION    = 82.5294
RA_OF_ASC_NODE = 196.1750
ARG_OF_PERICENTER = 265.3255
MEAN_ANOMALY   = 94.6052

EPHEMERIS_TYPE = 0
CLASSIFICATION_TYPE = U
NORAD_CAT_ID   = 17567
ELEMENT_SET_NO = 999
REV_AT_EPOCH   = 7178
BSTAR          = .61899E-4
MEAN_MOTION_DOT = .566E-5
MEAN_MOTION_DDOT = 0

CCSDS_OMM_VERS = 2.0
CREATION_DATE  = 
ORIGINATOR     = 

OBJECT_NAME    = COSMOS 1833
OBJECT_ID      = 1987-027A
CENTER_NAME    = EARTH
REF_FRAME      = TEME
TIME_SYSTEM    = UTC
MEAN_ELEMENT_THEORY = SGP/SGP4

EPOCH          = 2025-11-19T15:21:21.628224
MEAN_MOTION    = 14.13018512
ECCENTRICITY   = .0021548
INCLINATION    = 70.9135
RA_OF_ASC_NODE = 197.3372
ARG_OF_PERICENTER = 4.2215
MEAN_ANOMALY   = 355.9084

EPHEMERIS_TYPE = 0
CLASSIFICATION_TYPE = U
NORAD_CAT_ID   = 17589
ELEMENT_SET_NO = 999
REV_AT_EPOCH   = 99476
BSTAR          = -.37972E-4
MEAN_MOTION_DOT = -.119E-5
MEAN_MOTION_DDOT = 0

CCSDS_OMM_VERS = 2.0
CREATION_DATE  = 
ORIGINATOR     = 

OBJECT_NAME    = SL-16 R/B
OBJECT_ID      = 1987-027B
CENTER_NAME    = EARTH
REF_FRAME      = TEME
TIME_SYSTEM    = UTC
MEAN_ELEMENT_THEORY = SGP/SGP4

EPOCH          = 2025-11-19T19:00:00.078048
MEAN_MOTION    = 14.17146977
ECCENTRICITY   = .0007259
INCLINATION    = 71.0000
RA_OF_ASC_NODE = 148.0737
ARG_OF_PERICENTER = 283.3640
MEAN_ANOMALY   = 76.6674

EPHEMERIS_TYPE = 0
CLASSIFICATION_TYPE = U
NORAD_CAT_ID   = 17590
ELEMENT_SET_NO = 999
REV_AT_EPOCH   = 99981
BSTAR          = -.31647E-4
MEAN_MOTION_DOT = -.112E-5
MEAN_MOTION_DDOT = 0

CCSDS_OMM_VERS = 2.0
CREATION_DATE  = 
ORIGINATOR     = 

OBJECT_NAME    = SL-14 R/B
OBJECT_ID      = 1987-038B
CENTER_NAME    = EARTH
REF_FRAME      = TEME
TIME_SYSTEM    = UTC
MEAN_ELEMENT_THEORY = SGP/SGP4

EPOCH          = 2025-11-19T16:32:11.499936
MEAN_MOTION    = 14.85229920
ECCENTRICITY   = .0019755
INCLINATION    = 82.5036
RA_OF_ASC_NODE = 40.4082
ARG_OF_PERICENTER = 164.0468
MEAN_ANOMALY   = 196.1375

EPHEMERIS_TYPE = 0
CLASSIFICATION_TYPE = U
NORAD_CAT_ID   = 17912
ELEMENT_SET_NO = 999
REV_AT_EPOCH   = 6290
BSTAR          = .692E-4
MEAN_MOTION_DOT = .619E-5
MEAN_MOTION_DDOT = 0

CCSDS_OMM_VERS = 2.0
CREATION_DATE  = 
ORIGINATOR     = 

OBJECT_NAME    = COSMOS 1844
OBJECT_ID      = 1987-041A
CENTER_NAME    = EARTH
REF_FRAME      = TEME
TIME_SYSTEM    = UTC
MEAN_ELEMENT_THEORY = SGP/SGP4

EPOCH          = 2025-11-19T20:41:31.363584
MEAN_MOTION    = 14.14526785
ECCENTRICITY   = .0031243
INCLINATION    = 70.8994
RA_OF_ASC_NODE = 265.8214
ARG_OF_PERICENTER = 192.1388
MEAN_ANOMALY   = 167.8984

EPHEMERIS_TYPE = 0
CLASSIFICATION_TYPE = U
NORAD_CAT_ID   = 17973
ELEMENT_SET_NO = 999
REV_AT_EPOCH   = 98805
BSTAR          = .88316E-4
MEAN_MOTION_DOT = .122E-5
MEAN_MOTION_DDOT = 0

CCSDS_OMM_VERS = 2.0
CREATION_DATE  = 
ORIGINATOR     = 

OBJECT_NAME    = SL-14 R/B
OBJECT_ID      = 1987-055B
CENTER_NAME    = EARTH
REF_FRAME      = TEME
TIME_SYSTEM    = UTC
MEAN_ELEMENT_THEORY = SGP/SGP4

EPOCH          = 2025-11-19T14:49:21.652608
MEAN_MOTION    = 14.85485851
ECCENTRICITY   = .00211883
INCLINATION    = 82.4984
RA_OF_ASC_NODE = 92.7774
ARG_OF_PERICENTER = 21.3900
MEAN_ANOMALY   = 338.8196

EPHEMERIS_TYPE = 0
CLASSIFICATION_TYPE = U
NORAD_CAT_ID   = 18153
ELEMENT_SET_NO = 999
REV_AT_EPOCH   = 5359
BSTAR          = .70865076E-4
MEAN_MOTION_DOT = .638E-5
MEAN_MOTION_DDOT = 0

CCSDS_OMM_VERS = 2.0
CREATION_DATE  = 
ORIGINATOR     = 

OBJECT_NAME    = COSMOS 1867
OBJECT_ID      = 1987-060A
CENTER_NAME    = EARTH
REF_FRAME      = TEME
TIME_SYSTEM    = UTC
MEAN_ELEMENT_THEORY = SGP/SGP4

EPOCH          = 2025-11-19T13:09:27.694080
MEAN_MOTION    = 14.31480940
ECCENTRICITY   = .00136761
INCLINATION    = 65.0103
RA_OF_ASC_NODE = 255.1462
ARG_OF_PERICENTER = 268.8185
MEAN_ANOMALY   = 91.1333

EPHEMERIS_TYPE = 0
CLASSIFICATION_TYPE = U
NORAD_CAT_ID   = 18187
ELEMENT_SET_NO = 999
REV_AT_EPOCH   = 417
BSTAR          = .31967242E-4
MEAN_MOTION_DOT = -.15E-6
MEAN_MOTION_DDOT = 0

